[{"OBJECT_NAME":"STARLINK-33969","OBJECT_ID":"2025-093V","EPOCH":"2026-03-09T10:23:45.657312","MEAN_MOTION":15.27600671,"ECCENTRICITY":0.00031189,"INCLINATION":43.0041,"RA_OF_ASC_NODE":79.2681,"ARG_OF_PERICENTER":285.4479,"MEAN_ANOMALY":74.6028,"EPHEMERIS_TYPE":0,"CLASSIFICATION_TYPE":"U","NORAD_CAT_ID":63855,"ELEMENT_SET_NO":999,"REV_AT_EPOCH":4771,"BSTAR":0.00082373197,"MEAN_MOTION_DOT":0.0002249,"MEAN_MOTION_DDOT":0},{"OBJECT_NAME":"D-SAT","OBJECT_ID":"2017-036AF","EPOCH":"2026-03-09T22:00:14.910336","MEAN_MOTION":15.15529522,"ECCENTRICITY":0.00852401,"INCLINATION":97.5487,"RA_OF_ASC_NODE":48.252,"ARG_OF_PERICENTER":144.4633,"MEAN_ANOMALY":216.2319,"EPHEMERIS_TYPE":0,"CLASSIFICATION_TYPE":"U","NORAD_CAT_ID":42794,"ELEMENT_SET_NO":999,"REV_AT_EPOCH":47581,"BSTAR":0.00038655305,"MEAN_MOTION_DOT":7.964e-5,"MEAN_MOTION_DDOT":0}]
